IRIDIUM 26              
1 24903U 97043A   25193.46037840  .00000278  00000+0  86717-4 0  9992
2 24903  86.3952 100.0072 0002234  79.5864 280.5585 14.37160754460374
IRIDIUM 22              
1 24907U 97043E   25193.34141786  .00000250  00000+0  79368-4 0  9992
2 24907  86.3960 103.6187 0002136  84.3267 275.8173 14.35971318460380
DUMMY MASS 1            
1 24925U 97048A   25193.31611431  .00000314  00000+0  31896-4 0  9998
2 24925  86.3364 123.7144 0008820  66.0209 294.1938 14.87002167508866
DUMMY MASS 2            
1 24926U 97048B   25193.55167085  .00000295  00000+0  29941-4 0  9992
2 24926  86.3366 125.2173 0009766  73.6587 286.5711 14.86754196508679
IRIDIUM 29              
1 24944U 97051A   25193.56438112  .00000277  00000+0  87770-4 0  9993
2 24944  86.3983 133.2578 0002201  90.4994 269.6455 14.36483885456913
IRIDIUM 33              
1 24946U 97051C   25193.57405466  .00000229  00000+0  73660-4 0  9992
2 24946  86.3899 132.5162 0008157  11.8737 348.2649 14.34905124456383
IRIDIUM 36              
1 24967U 97056C   25193.41177186  .00000284  00000+0  87935-4 0  9999
2 24967  86.4002 162.4085 0002070  83.1732 276.9701 14.37625077455849
